[{"OBJECT_NAME":"LEMUR-2-PETERG","OBJECT_ID":"2017-042S","EPOCH":"2026-03-09T11:34:35.656032","MEAN_MOTION":15.29611459,"ECCENTRICITY":0.00037,"INCLINATION":97.398,"RA_OF_ASC_NODE":253.6596,"ARG_OF_PERICENTER":341.6938,"MEAN_ANOMALY":18.4169,"EPHEMERIS_TYPE":0,"CLASSIFICATION_TYPE":"U","NORAD_CAT_ID":42841,"ELEMENT_SET_NO":999,"REV_AT_EPOCH":47317,"BSTAR":0.00081076471,"MEAN_MOTION_DOT":0.0002324,"MEAN_MOTION_DDOT":0},{"OBJECT_NAME":"STARLINK-33872","OBJECT_ID":"2025-113V","EPOCH":"2026-03-09T10:45:48.912192","MEAN_MOTION":15.30220217,"ECCENTRICITY":0.00014429,"INCLINATION":53.1605,"RA_OF_ASC_NODE":91.8609,"ARG_OF_PERICENTER":59.9173,"MEAN_ANOMALY":300.1971,"EPHEMERIS_TYPE":0,"CLASSIFICATION_TYPE":"U","NORAD_CAT_ID":64189,"ELEMENT_SET_NO":999,"REV_AT_EPOCH":4499,"BSTAR":0.0010544113,"MEAN_MOTION_DOT":0.00031019,"MEAN_MOTION_DDOT":0}]
